OBJECT_NAME,OBJECT_ID,EPOCH,MEAN_MOTION,ECCENTRICITY,INCLINATION,RA_OF_ASC_NODE,ARG_OF_PERICENTER,MEAN_ANOMALY,EPHEMERIS_TYPE,CLASSIFICATION_TYPE,NORAD_CAT_ID,ELEMENT_SET_NO,REV_AT_EPOCH,BSTAR,MEAN_MOTION_DOT,MEAN_MOTION_DDOT
SCD 1,1993-009B,2026-06-18T06:24:03.846816,14.46119121,.00420381,24.9678,200.9116,149.0936,260.8826,0,U,22490,999,76127,.37800824E-4,.325E-5,0
TECHSAT 1B (GO-32),1998-043D,2026-06-17T23:27:40.219776,14.24428526,.00011067,99.0067,161.7561,161.1376,198.9843,0,U,25397,999,45144,.35812267E-4,.36E-6,0
SCD 2,1998-060A,2026-06-18T00:05:33.237888,14.45526188,.00169244,24.9956,67.1206,131.4313,340.6021,0,U,25504,999,46044,.4797234E-4,.354E-5,0
DLR-TUBSAT,1999-029B,2026-06-17T23:34:33.604032,14.52427005,.00139972,98.6695,164.5125,352.8031,7.2961,0,U,25757,999,43336,.23472171E-4,.47E-6,0
TERRA,1999-068A,2026-06-18T05:54:59.640768,14.61103942,.00016681,97.9456,218.7508,185.9258,215.8449,0,U,25994,999,40976,.75436728E-4,.327E-5,0
MAROC-TUBSAT,2001-056D,2026-06-18T02:36:31.891680,13.70262472,.00203562,99.8082,345.9855,138.9487,338.5166,0,U,27004,999,22631,.7045408E-5,-.4E-6,0
AQUA,2002-022A,2026-06-18T07:04:17.893056,14.62159623,.00010621,98.4277,138.5996,53.5785,53.3555,0,U,27424,999,28343,.13218808E-3,.616E-5,0
SHIYAN-1 (SY-1),2004-012A,2026-06-18T03:53:35.749248,15.33782461,.00055028,97.8688,247.2939,29.5487,330.6065,0,U,28220,999,21124,.36757851E-3,.11933E-3,0
AURA,2004-026A,2026-06-18T06:53:21.812928,14.61330565,.0001204,98.3417,125.7494,76.1036,284.0298,0,U,28376,999,16637,.13471318E-3,.617E-5,0
IRS-P5 (CARTOSAT-1),2005-017A,2026-06-18T00:25:39.390528,14.91051440,.00025545,97.5307,192.0446,78.8638,281.2868,0,U,28649,999,14394,.12634171E-3,.1198E-4,0
SINAH 1,2005-043D,2026-06-18T06:49:20.529696,14.64158246,.00131267,98.2862,303.6127,273.0152,86.9548,0,U,28893,999,10068,.5410663E-4,.235E-5,0
RESURS-DK 1,2006-021A,2026-06-17T21:28:22.281312,15.13220954,.00068814,69.9330,337.7217,291.3042,68.7389,0,U,29228,999,10268,.10743511E-3,.1805E-4,0
ARIRANG-2 (KOMPSAT-2),2006-031A,2026-06-18T07:53:57.179328,14.64660603,.00159122,97.8302,353.7199,71.2476,50.6770,0,U,29268,999,6164,.46668075E-4,.204E-5,0
LAPAN-TUBSAT,2007-001A,2026-06-18T06:20:46.010688,14.85948675,.00119423,98.1336,168.5126,175.9398,184.1916,0,U,29709,999,5131,-.22365102E-4,-.253E-5,0
HAIYANG-1B,2007-010A,2026-06-17T21:56:03.475968,14.31027083,.00130613,98.3495,150.7309,194.0963,165.9858,0,U,31113,999,74,.43338499E-4,.72E-6,0
COSMO-SKYMED 1,2007-023A,2026-06-18T06:30:35.306208,14.97103986,.00013764,97.8848,1.1359,98.3961,261.7417,0,U,31598,999,2995,.20097584E-3,.2259E-4,0
TERRASAR-X,2007-026A,2026-06-17T14:05:11.304960,15.19150392,.00015603,97.4452,176.2866,90.2646,269.8767,0,U,31698,999,5328,.16539198E-4,.28E-5,0
WORLDVIEW-1 (WV-1),2007-041A,2026-06-18T05:04:01.685568,15.24275883,.00021412,97.3882,288.9397,18.4095,341.7219,0,U,32060,999,4303,.20029718E-3,.482E-4,0
YAOGAN-3,2007-055A,2026-06-18T08:03:08.557344,14.90783693,.00018624,97.8147,199.2020,79.6208,280.5220,0,U,32289,999,604,.10919914E-3,.1018E-4,0
COSMO-SKYMED 2,2007-059A,2026-06-18T05:47:20.963040,14.82155760,.00013458,97.8886,352.8238,87.9559,272.1809,0,U,32376,999,216,.44426941E-4,.301E-5,0
RADARSAT-2,2007-061A,2026-06-18T05:27:20.265696,14.29982200,.0001295,98.5771,176.1452,83.5668,276.5662,0,U,32382,999,96610,.63978292E-4,.121E-5,0
CARTOSAT-2A,2008-021A,2026-06-18T06:20:19.031424,14.79239633,.00132059,97.7629,217.9361,105.6065,254.6605,0,U,32783,999,97896,.39696442E-4,.245E-5,0
HUANJING 1A (HJ-1A),2008-041A,2026-06-18T05:53:02.397696,14.83987953,.00200233,97.6680,155.0427,131.4518,228.8421,0,U,33320,999,95856,.13287412E-3,.1058E-4,0
HUANJING 1B (HJ-1B),2008-041B,2026-06-18T06:46:19.947648,14.83320532,.0036137,97.6516,158.2471,177.2568,182.8852,0,U,33321,999,95857,.13856177E-3,.1095E-4,0
GEOEYE 1,2008-042A,2026-06-18T05:52:40.742400,14.64726616,.00053645,98.1236,243.1628,67.1291,293.0478,0,U,33331,999,95030,.77039156E-4,.363E-5,0
THEOS,2008-049A,2026-06-18T07:22:49.855872,14.20132579,.00012209,98.5567,226.5549,80.4392,279.6923,0,U,33396,999,91812,-.52715459E-4,-.155E-5,0
COSMO-SKYMED 3,2008-054A,2026-06-18T06:31:37.922016,15.06958039,.00140329,97.8280,27.8601,262.8341,97.1290,0,U,33412,999,95710,.15645037E-3,.2278E-4,0
YAOGAN-4,2008-061A,2026-06-18T05:54:57.987936,14.83201916,.00156874,97.9308,102.7490,69.3068,290.9826,0,U,33446,999,94582,.10372E-3,.795E-5,0
GOSAT (IBUKI),2009-002A,2026-06-17T21:19:14.329920,14.67540412,.00014618,98.0892,279.9605,83.2330,276.9041,0,U,33492,999,93156,.16857508E-3,.908E-5,0
DEIMOS-1,2009-041A,2026-06-18T06:31:06.589056,14.75237949,.00016876,97.7404,326.4516,128.4920,231.6442,0,U,35681,999,90704,.65905162E-4,.398E-5,0
