SCD 1                   
1 22490U 93009B   26169.26671119  .00000325  00000+0  37801-4 0  9997
2 22490  24.9678 200.9116 0042038 149.0936 260.8826 14.46119121761278
TECHSAT 1B (GO-32)      
1 25397U 98043D   26168.97754884  .00000036  00000+0  35812-4 0  9996
2 25397  99.0067 161.7561 0001106 161.1376 198.9843 14.24428526451447
SCD 2                   
1 25504U 98060A   26169.00385692  .00000354  00000+0  47972-4 0  9990
2 25504  24.9956  67.1206 0016924 131.4313 340.6021 14.45526188460441
DLR-TUBSAT              
1 25757U 99029B   26168.98233338  .00000047  00000+0  23472-4 0  9999
2 25757  98.6695 164.5125 0013997 352.8031   7.2961 14.52427005433360
TERRA                   
1 25994U 99068A   26169.24652362  .00000327  00000+0  75437-4 0  9996
2 25994  97.9456 218.7508 0001668 185.9258 215.8449 14.61103942409761
MAROC-TUBSAT            
1 27004U 01056D   26169.10870245 -.00000040  00000+0  70454-5 0  9995
2 27004  99.8082 345.9855 0020356 138.9487 338.5166 13.70262472226316
AQUA                    
1 27424U 02022A   26169.29465154  .00000616  00000+0  13219-3 0  9996
2 27424  98.4277 138.5996 0001062  53.5785  53.3555 14.62159623283436
SHIYAN-1 (SY-1)         
1 28220U 04012A   26169.16221932  .00011933  00000+0  36758-3 0  9999
2 28220  97.8688 247.2939 0005502  29.5487 330.6065 15.33782461211248
AURA                    
1 28376U 04026A   26169.28705802  .00000617  00000+0  13471-3 0  9996
2 28376  98.3417 125.7494 0001204  76.1036 284.0298 14.61330565166372
IRS-P5 (CARTOSAT-1)     
1 28649U 05017A   26169.01781702  .00001198  00000+0  12634-3 0  9999
2 28649  97.5307 192.0446 0002554  78.8638 281.2868 14.91051440143949
SINAH 1                 
1 28893U 05043D   26169.28426539  .00000235  00000+0  54107-4 0  9995
2 28893  98.2862 303.6127 0013126 273.0152  86.9548 14.64158246100688
RESURS-DK 1             
1 29228U 06021A   26168.89470233  .00001805  00000+0  10744-3 0  9993
2 29228  69.9330 337.7217 0006881 291.3042  68.7389 15.13220954102689
ARIRANG-2 (KOMPSAT-2)   
1 29268U 06031A   26169.32913402  .00000204  00000+0  46668-4 0  9994
2 29268  97.8302 353.7199 0015912  71.2476  50.6770 14.64660603 61648
LAPAN-TUBSAT            
1 29709U 07001A   26169.26442142 -.00000253  00000+0 -22365-4 0  9997
2 29709  98.1336 168.5126 0011942 175.9398 184.1916 14.85948675 51314
HAIYANG-1B              
1 31113U 07010A   26168.91392912  .00000072  00000+0  43338-4 0  9999
2 31113  98.3495 150.7309 0013061 194.0963 165.9858 14.31027083   749
COSMO-SKYMED 1          
1 31598U 07023A   26169.27124197  .00002259  00000+0  20098-3 0  9994
2 31598  97.8848   1.1359 0001376  98.3961 261.7417 14.97103986 29955
TERRASAR-X              
1 31698U 07026A   26168.58693640  .00000280  00000+0  16539-4 0  9993
2 31698  97.4452 176.2866 0001560  90.2646 269.8767 15.19150392 53284
WORLDVIEW-1 (WV-1)      
1 32060U 07041A   26169.21113062  .00004820  00000+0  20030-3 0  9994
2 32060  97.3882 288.9397 0002141  18.4095 341.7219 15.24275883 43033
YAOGAN-3                
1 32289U 07055A   26169.33551571  .00001018  00000+0  10920-3 0  9999
2 32289  97.8147 199.2020 0001862  79.6208 280.5220 14.90783693  6043
COSMO-SKYMED 2          
1 32376U 07059A   26169.24121485  .00000301  00000+0  44427-4 0  9991
2 32376  97.8886 352.8238 0001345  87.9559 272.1809 14.82155760  2163
RADARSAT-2              
1 32382U 07061A   26169.22731789  .00000121  00000+0  63978-4 0  9995
2 32382  98.5771 176.1452 0001295  83.5668 276.5662 14.29982200966109
CARTOSAT-2A             
1 32783U 08021A   26169.26410916  .00000245  00000+0  39696-4 0  9994
2 32783  97.7629 217.9361 0013205 105.6065 254.6605 14.79239633978962
HUANJING 1A (HJ-1A)     
1 33320U 08041A   26169.24516664  .00001058  00000+0  13287-3 0  9999
2 33320  97.6680 155.0427 0020023 131.4518 228.8421 14.83987953958560
HUANJING 1B (HJ-1B)     
1 33321U 08041B   26169.28217532  .00001095  00000+0  13856-3 0  9999
2 33321  97.6516 158.2471 0036137 177.2568 182.8852 14.83320532958571
GEOEYE 1                
1 33331U 08042A   26169.24491600  .00000363  00000+0  77039-4 0  9998
2 33331  98.1236 243.1628 0005364  67.1291 293.0478 14.64726616950307
THEOS                   
1 33396U 08049A   26169.30752148 -.00000155  00000+0 -52715-4 0  9995
2 33396  98.5567 226.5549 0001220  80.4392 279.6923 14.20132579918123
COSMO-SKYMED 3          
1 33412U 08054A   26169.27196669  .00002278  00000+0  15645-3 0  9992
2 33412  97.8280  27.8601 0014032 262.8341  97.1290 15.06958039957105
YAOGAN-4                
1 33446U 08061A   26169.24650449  .00000795  00000+0  10372-3 0  9999
2 33446  97.9308 102.7490 0015687  69.3068 290.9826 14.83201916945829
GOSAT (IBUKI)           
1 33492U 09002A   26168.88836030  .00000908  00000+0  16858-3 0  9998
2 33492  98.0892 279.9605 0001461  83.2330 276.9041 14.67540412931565
DEIMOS-1                
1 35681U 09041A   26169.27160404  .00000398  00000+0  65905-4 0  9993
2 35681  97.7404 326.4516 0001687 128.4920 231.6442 14.75237949907044
